NORAD_CAT_ID,OBJECT_NAME,OBJECT_TYPE,EPOCH,MEAN_MOTION,ECCENTRICITY,INCLINATION,RA_OF_ASC_NODE,ARG_OF_PERICENTER,MEAN_ANOMALY,BSTAR,MEAN_MOTION_DOT,MEAN_MOTION_DDOT,TLE_LINE0,TLE_LINE1,TLE_LINE2,SEMIMAJOR_AXIS,PERIOD,APOGEE,PERIGEE,DECAYED
51803.0,STARLINK-3544,PAYLOAD,2022-11-13 03:36:51,15.08839283,0.0002172,53.2183,32.4148,41.5344,318.5813,0.00024552,3.621e-05,0.0,0 STARLINK-3544,1 51803U 22017AM  22317.15059760  .00003621  00000-0  24552-3 0  9990,2 51803  53.2183  32.4148 0002172  41.5344 318.5813 15.08839283 40860,6917.8830000000025,95.438,541.25,538.245,0.0
51803.0,STARLINK-3544,PAYLOAD,2022-11-13 09:58:24,15.08836235,0.0002243,53.219,31.2262,24.8348,335.2752,0.00013148,1.805e-05,0.0,0 STARLINK-3544,1 51803U 22017AM  22317.41556497  .00001805  00000-0  13148-3 0  9999,2 51803  53.2190  31.2262 0002243  24.8348 335.2752 15.08836235 40906,6917.892,95.438,541.309,538.205,0.0
51803.0,STARLINK-3544,PAYLOAD,2022-11-13 11:33:48,15.08831028,0.0002194,53.2184,30.9288,27.2539,332.8568,8.091e-05,9.99e-06,0.0,0 STARLINK-3544,1 51803U 22017AM  22317.48181021  .00000999  00000-0  80910-4 0  9998,2 51803  53.2184  30.9288 0002194  27.2539 332.8568 15.08831028 40911,6917.908,95.438,541.2909999999998,538.255,0.0
51803.0,STARLINK-3544,PAYLOAD,2022-11-14 09:49:12,15.08840671,0.0002123,53.2188,26.7657,35.3564,324.7568,-0.00010178,-1.908e-05,0.0,0 STARLINK-3544,1 51803U 22017AM  22318.40917279 -.00001908  00000-0 -10178-3 0  9994,2 51803  53.2188  26.7657 0002123  35.3564 324.7568 15.08840671 41058,6917.878000000002,95.438,541.212,538.275,0.0
51803.0,STARLINK-3544,PAYLOAD,2022-11-14 14:35:21,15.08845882,0.0002206,53.2184,25.8737,30.6362,329.4758,-7.5057e-05,-1.483e-05,0.0,0 STARLINK-3544,1 51803U 22017AM  22318.60788836 -.00001483  00000-0 -75057-4 0  9997,2 51803  53.2184  25.8737 0002206  30.6362 329.4758 15.08845882 41084,6917.861999999999,95.437,541.253,538.201,0.0
51803.0,STARLINK-3544,PAYLOAD,2022-11-15 12:50:45,15.08833715,0.0002313,53.2181,21.7114,25.2831,334.8274,7.9119e-05,9.71e-06,0.0,0 STARLINK-3544,1 51803U 22017AM  22319.53524851  .00000971  00000-0  79119-4 0  9997,2 51803  53.2181  21.7114 0002313  25.2831 334.8274 15.08833715 41226,6917.9,95.438,541.365,538.164,0.0
51803.0,STARLINK-3544,PAYLOAD,2022-11-16 03:09:14,15.0883108,0.0002367,53.218,19.0354,26.5922,333.5191,3.0203e-06,-2.4e-06,0.0,0 STARLINK-3544,1 51803U 22017AM  22320.13141648 -.00000240  00000-0  30203-5 0  9996,2 51803  53.2180  19.0354 0002367  26.5922 333.5191 15.08831080 41312,6917.908,95.438,541.41,538.135,0.0
51803.0,STARLINK-3544,PAYLOAD,2022-11-16 11:06:10,15.08827203,0.0002423,53.2179,17.5481,26.7711,333.3406,-3.016e-05,-7.68e-06,0.0,0 STARLINK-3544,1 51803U 22017AM  22320.46262247 -.00000768  00000-0 -30160-4 0  9998,2 51803  53.2179  17.5481 0002423  26.7711 333.3406 15.08827203 41369,6917.92,95.438,541.461,538.1080000000002,0.0
51803.0,STARLINK-3544,PAYLOAD,2022-11-17 04:35:24,15.08835129,0.0002348,53.2182,14.2766,31.9222,328.1912,2.5446e-06,-2.48e-06,0.0,0 STARLINK-3544,1 51803U 22017AM  22321.19125839 -.00000248  00000-0  25446-5 0  9998,2 51803  53.2182  14.2766 0002348  31.9222 328.1912 15.08835129 41476,6917.895,95.438,541.385,538.136,0.0
51803.0,STARLINK-3544,PAYLOAD,2022-11-17 09:21:34,15.08832659,0.0002445,53.2179,13.3849,30.2236,329.8897,-9.2209e-06,-4.35e-06,0.0,0 STARLINK-3544,1 51803U 22017AM  22321.38998136 -.00000435  00000-0 -92209-5 0  9997,2 51803  53.2179  13.3849 0002445  30.2236 329.8897 15.08832659 41508,6917.903,95.438,541.4590000000002,538.076,0.0
51803.0,STARLINK-3544,PAYLOAD,2022-11-17 10:56:57,15.08831734,0.0002428,53.2178,13.0875,31.9234,328.1904,-2.001e-05,-6.07e-06,0.0,0 STARLINK-3544,1 51803U 22017AM  22321.45622262 -.00000607  00000-0 -20010-4 0  9990,2 51803  53.2178  13.0875 0002428  31.9234 328.1904 15.08831734 41515,6917.906,95.438,541.45,538.091,0.0
51803.0,STARLINK-3544,PAYLOAD,2022-11-18 02:50:48,15.0883437,0.0002419,53.218,10.1134,31.5854,328.5282,9.9953e-05,1.303e-05,0.0,0 STARLINK-3544,1 51803U 22017AM  22322.11861884  .00001303  00000-0  99953-4 0  9993,2 51803  53.2180  10.1134 0002419  31.5854 328.5282 15.08834370 41611,6917.898,95.438,541.436,538.089,0.0
51803.0,STARLINK-3544,PAYLOAD,2022-11-18 07:36:57,15.08839088,0.0002443,53.2183,9.2219,32.7034,327.4109,0.00013789,1.907e-05,0.0,0 STARLINK-3544,1 51803U 22017AM  22322.31733534  .00001907  00000-0  13789-3 0  9997,2 51803  53.2183   9.2219 0002443  32.7034 327.4109 15.08839088 41647,6917.8830000000025,95.438,541.438,538.058,0.0
51803.0,STARLINK-3544,PAYLOAD,2022-11-18 20:20:02,15.08843952,0.0002503,53.2179,6.843,31.2107,328.9034,3.339e-05,2.43e-06,0.0,0 STARLINK-3544,1 51803U 22017AM  22322.84725522  .00000243  00000-0  33390-4 0  9996,2 51803  53.2179   6.8430 0002503  31.2107 328.9034 15.08843952 41729,6917.868,95.437,541.465,538.002,0.0
51803.0,STARLINK-3544,PAYLOAD,2022-11-19 04:16:58,15.08838962,0.0002571,53.2184,5.3564,27.4515,332.6612,0.00012346,1.677e-05,0.0,0 STARLINK-3544,1 51803U 22017AM  22323.17845529  .00001677  00000-0  12346-3 0  9992,2 51803  53.2184   5.3564 0002571  27.4515 332.6612 15.08838962 41776,6917.884,95.438,541.5269999999998,537.97,0.0
51803.0,STARLINK-3544,PAYLOAD,2022-11-19 20:10:50,15.08836107,0.000257,53.2178,2.3832,32.5955,327.5195,3.9774e-05,3.45e-06,0.0,0 STARLINK-3544,1 51803U 22017AM  22323.84086025  .00000345  00000-0  39774-4 0  9990,2 51803  53.2178   2.3832 0002570  32.5955 327.5195 15.08836107 41877,6917.892,95.438,541.535,537.979,0.0
51803.0,STARLINK-3544,PAYLOAD,2022-11-20 02:32:22,15.08849593,0.0002251,53.2181,1.192,28.4909,331.6206,-1.485e-05,-5.25e-06,0.0,0 STARLINK-3544,1 51803U 22017AM  22324.10581206 -.00000525  00000-0 -14850-4 0  9991,2 51803  53.2181   1.1920 0002251  28.4909 331.6206 15.08849593 41912,6917.851,95.437,541.273,538.159,0.0
51803.0,STARLINK-3544,PAYLOAD,2022-11-20 12:04:40,15.08851819,0.0002665,53.2179,359.4097,28.3756,331.7381,3.5287e-05,2.73e-06,0.0,0 STARLINK-3544,1 51803U 22017AM  22324.50324696  .00000273  00000-0  35287-4 0  9998,2 51803  53.2179 359.4097 0002665  28.3756 331.7381 15.08851819 41976,6917.844,95.437,541.553,537.866,0.0
51803.0,STARLINK-3544,PAYLOAD,2022-11-21 02:23:09,15.08837244,0.0002482,53.2177,356.7333,27.1513,332.9608,1.3718e-05,-7e-07,0.0,0 STARLINK-3544,1 51803U 22017AM  22325.09941456 -.00000070  00000-0  13718-4 0  9993,2 51803  53.2177 356.7333 0002482  27.1513 332.9608 15.08837244 42064,6917.889,95.438,541.471,538.0369999999998,0.0
51803.0,STARLINK-3544,PAYLOAD,2022-11-21 08:44:42,15.08839737,0.0002601,53.2176,355.5438,30.5563,329.55800000000005,-5.150300000000001e-05,-1.108e-05,0.0,0 STARLINK-3544,1 51803U 22017AM  22325.36437597 -.00001108  00000-0 -51503-4 0  9997,2 51803  53.2176 355.5438 0002601  30.5563 329.5580 15.08839737 42107,6917.880999999999,95.438,541.5459999999998,537.947,0.0
51803.0,STARLINK-3544,PAYLOAD,2022-11-22 02:13:55,15.08849496,0.0002593,53.2177,352.2727,27.6053,332.5076,2.6395e-06,-2.46e-06,0.0,0 STARLINK-3544,1 51803U 22017AM  22326.09300654 -.00000246  00000-0  26395-5 0  9994,2 51803  53.2177 352.2727 0002593  27.6053 332.5076 15.08849496 42213,6917.851,95.437,541.51,537.923,0.0
51803.0,STARLINK-3544,PAYLOAD,2022-11-22 08:35:28,15.08843713,0.0002562,53.2186,351.0831,28.6456,331.4677,-5.6301e-05,-1.185e-05,0.0,0 STARLINK-3544,1 51803U 22017AM  22326.35797150 -.00001185  00000-0 -56301-4 0  9997,2 51803  53.2186 351.0831 0002562  28.6456 331.4677 15.08843713 42255,6917.869000000002,95.437,541.506,537.962,0.0
51803.0,STARLINK-3544,PAYLOAD,2022-11-23 02:04:43,15.08832995,0.0002586,53.2189,347.8128,29.2217,330.8919,3.2064e-05,2.22e-06,0.0,0 STARLINK-3544,1 51803U 22017AM  22327.08661513  .00000222  00000-0  32064-4 0  9990,2 51803  53.2189 347.8128 0002586  29.2217 330.8919 15.08832995 42362,6917.901999999999,95.438,541.556,537.9780000000002,0.0
51803.0,STARLINK-3544,PAYLOAD,2022-11-23 10:01:39,15.0882941,0.000262,53.2186,346.3258,28.3948,331.7187,3.0492e-05,1.97e-06,0.0,0 STARLINK-3544,1 51803U 22017AM  22327.41781892  .00000197  00000-0  30492-4 0  9994,2 51803  53.2186 346.3258 0002620  28.3948 331.7187 15.08829410 42418,6917.913000000001,95.438,541.59,537.965,0.0
51803.0,STARLINK-3544,PAYLOAD,2022-11-23 17:58:34,15.0883814,0.0002658,53.2188,344.8389,29.6455,330.4687,-1.5059e-05,-5.28e-06,0.0,0 STARLINK-3544,1 51803U 22017AM  22327.74901595 -.00000528  00000-0 -15059-4 0  9996,2 51803  53.2188 344.8389 0002658  29.6455 330.4687 15.08838140 42462,6917.886,95.438,541.59,537.9119999999998,0.0
51803.0,STARLINK-3544,PAYLOAD,2022-11-24 08:17:03,15.08831279,0.0002707,53.2189,342.1631,28.89,331.2241,-3.2608000000000004e-05,-8.07e-06,0.0,0 STARLINK-3544,1 51803U 22017AM  22328.34518112 -.00000807  00000-0 -32608-4 0  9991,2 51803  53.2189 342.1631 0002707  28.8900 331.2241 15.08831279 42556,6917.906999999997,95.438,541.645,537.899,0.0
51803.0,STARLINK-3544,PAYLOAD,2022-11-24 17:49:22,15.08833018,0.0002997,53.2192,340.3788,28.5716,331.5440000000001,-1.3384e-05,-5.02e-06,0.0,0 STARLINK-3544,1 51803U 22017AM  22328.74262190 -.00000502  00000-0 -13384-4 0  9999,2 51803  53.2192 340.3788 0002997  28.5716 331.5440 15.08833018 42610,6917.901999999999,95.438,541.84,537.693,0.0
51803.0,STARLINK-3544,PAYLOAD,2022-11-25 09:43:13,15.0884033,0.0002713,53.2183,337.4039,29.4819,330.6325,9.9217e-05,1.291e-05,0.0,0 STARLINK-3544,1 51803U 22017AM  22329.40501367  .00001291  00000-0  99217-4 0  9998,2 51803  53.2183 337.4039 0002713  29.4819 330.6325 15.08840330 42714,6917.879,95.438,541.621,537.868,0.0
51803.0,STARLINK-3544,PAYLOAD,2022-11-25 17:40:09,15.08835219,0.0002711,53.2175,335.9166,30.0069,330.1078,1.2928e-05,-8.3e-07,0.0,0 STARLINK-3544,1 51803U 22017AM  22329.73622083 -.00000083  00000-0  12928-4 0  9996,2 51803  53.2175 335.9166 0002711  30.0069 330.1078 15.08835219 42767,6917.895,95.438,541.635,537.885,0.0
